start=new Date('2022-08-05T00:00:00.000Z').valueOf();
sats=[{"MEAN_ANOMALY":"14.8418","EPOCH":"2022-08-04T22:00:00.999936","SEMIMAJOR_AXIS":"6728.067","TIME_SYSTEM":"UTC","MEAN_MOTION":"15.73139820","ARG_OF_PERICENTER":"25.2728","OBJECT_ID":"2022-076AJ","REF_FRAME":"TEME","CLASSIFICATION_TYPE":"U","INCLINATION":"53.2185","OBJECT_TYPE":"PAYLOAD","BSTAR":"0.00014123000000","RCS_SIZE":"LARGE","GP_ID":"209567096","RA_OF_ASC_NODE":"239.1741","OBJECT_NAME":"STARLINK-4279","PERIAPSIS":"348.664","REV_AT_EPOCH":"496","COUNTRY_CODE":"US","FILE":"3529244","TLE_LINE1":"1 53018U 22076AJ  22216.91667824  .00019195  00000-0  14123-3 0  9999","PERIOD":"91.537","ELEMENT_SET_NO":"999","CENTER_NAME":"EARTH","EPHEMERIS_TYPE":"0","DECAY_DATE":null,"APOAPSIS":"351.199","MEAN_MOTION_DOT":"0.00019195","NORAD_CAT_ID":"53018","LAUNCH_DATE":"2022-07-07","ECCENTRICITY":"0.00018840","SITE":"AFETR","MEAN_ELEMENT_THEORY":"SGP4","TLE_LINE2":"2 53018  53.2185 239.1741 0001884  25.2728  14.8418 15.73139820  4961","MEAN_MOTION_DDOT":"0.0000000000000"},{"REV_AT_EPOCH":"130","COUNTRY_CODE":"US","PERIAPSIS":"348.039","OBJECT_NAME":"STARLINK-4282","RA_OF_ASC_NODE":"239.1663","ELEMENT_SET_NO":"999","PERIOD":"91.533","TLE_LINE1":"1 53019U 22076AK  22216.91667824 -.00026401  00000-0 -18415-3 0  9998","FILE":"3529274","NORAD_CAT_ID":"53019","MEAN_MOTION_DOT":"-0.00026401","DECAY_DATE":null,"APOAPSIS":"351.421","EPHEMERIS_TYPE":"0","CENTER_NAME":"EARTH","MEAN_MOTION_DDOT":"0.0000000000000","TLE_LINE2":"2 53019  53.2182 239.1663 0002513  15.0041  28.7911 15.73210588  1305","MEAN_ELEMENT_THEORY":"SGP4","SITE":"AFETR","LAUNCH_DATE":"2022-07-07","ECCENTRICITY":"0.00025130","SEMIMAJOR_AXIS":"6727.865","TIME_SYSTEM":"UTC","EPOCH":"2022-08-04T22:00:00.999936","MEAN_ANOMALY":"28.7911","ARG_OF_PERICENTER":"15.0041","MEAN_MOTION":"15.73210588","BSTAR":"-0.00018415000000","OBJECT_TYPE":"PAYLOAD","CLASSIFICATION_TYPE":"U","INCLINATION":"53.2182","REF_FRAME":"TEME","OBJECT_ID":"2022-076AK","GP_ID":"209592489","RCS_SIZE":"LARGE"},{"MEAN_MOTION":"15.73152196","ARG_OF_PERICENTER":"29.6480","MEAN_ANOMALY":"11.7467","EPOCH":"2022-08-04T22:00:00.999936","SEMIMAJOR_AXIS":"6728.031","TIME_SYSTEM":"UTC","RCS_SIZE":"LARGE","GP_ID":"209592621","REF_FRAME":"TEME","OBJECT_ID":"2022-076AL","INCLINATION":"53.2183","CLASSIFICATION_TYPE":"U","OBJECT_TYPE":"PAYLOAD","BSTAR":"0.00050400000000","FILE":"3529274","TLE_LINE1":"1 53020U 22076AL  22216.91667824  .00070566  00000-0  50400-3 0  9999","PERIOD":"91.536","ELEMENT_SET_NO":"999","RA_OF_ASC_NODE":"239.1704","OBJECT_NAME":"STARLINK-4287","PERIAPSIS":"348.539","COUNTRY_CODE":"US","REV_AT_EPOCH":"130","LAUNCH_DATE":"2022-07-07","ECCENTRICITY":"0.00020170","SITE":"AFETR","MEAN_ELEMENT_THEORY":"SGP4","TLE_LINE2":"2 53020  53.2183 239.1704 0002017  29.6480  11.7467 15.73152196  1309","MEAN_MOTION_DDOT":"0.0000000000000","CENTER_NAME":"EARTH","EPHEMERIS_TYPE":"0","DECAY_DATE":null,"APOAPSIS":"351.254","MEAN_MOTION_DOT":"0.00070566","NORAD_CAT_ID":"53020"},{"MEAN_MOTION_DOT":"0.00071694","DECAY_DATE":null,"APOAPSIS":"351.765","EPHEMERIS_TYPE":"0","CENTER_NAME":"EARTH","NORAD_CAT_ID":"53021","TLE_LINE2":"2 53021  53.2182 239.1634 0002507  12.8208  32.3206 15.73088303  4960","MEAN_ELEMENT_THEORY":"SGP4","SITE":"AFETR","ECCENTRICITY":"0.00025070","LAUNCH_DATE":"2022-07-07","MEAN_MOTION_DDOT":"0.0000000000000","RA_OF_ASC_NODE":"239.1634","COUNTRY_CODE":"US","REV_AT_EPOCH":"496","PERIAPSIS":"348.392","OBJECT_NAME":"STARLINK-4203","PERIOD":"91.540","TLE_LINE1":"1 53021U 22076AM  22216.91667824  .00071694  00000-0  51329-3 0  9994","FILE":"3529244","ELEMENT_SET_NO":"999","REF_FRAME":"TEME","OBJECT_ID":"2022-076AM","BSTAR":"0.00051329000000","OBJECT_TYPE":"PAYLOAD","INCLINATION":"53.2182","CLASSIFICATION_TYPE":"U","GP_ID":"209567608","RCS_SIZE":"LARGE","TIME_SYSTEM":"UTC","SEMIMAJOR_AXIS":"6728.214","MEAN_ANOMALY":"32.3206","EPOCH":"2022-08-04T22:00:00.999936","ARG_OF_PERICENTER":"12.8208","MEAN_MOTION":"15.73088303"},{"RA_OF_ASC_NODE":"239.1664","OBJECT_NAME":"STARLINK-4216","PERIAPSIS":"348.347","COUNTRY_CODE":"US","REV_AT_EPOCH":"130","FILE":"3529274","TLE_LINE1":"1 53022U 22076AN  22216.91667824  .00035856  00000-0  25970-3 0  9998","PERIOD":"91.538","ELEMENT_SET_NO":"999","CENTER_NAME":"EARTH","EPHEMERIS_TYPE":"0","DECAY_DATE":null,"APOAPSIS":"351.648","MEAN_MOTION_DOT":"0.00035856","NORAD_CAT_ID":"53022","LAUNCH_DATE":"2022-07-07","ECCENTRICITY":"0.00024530","SITE":"AFETR","MEAN_ELEMENT_THEORY":"SGP4","TLE_LINE2":"2 53022  53.2182 239.1664 0002453  22.8359  20.5789 15.73116847  1307","MEAN_MOTION_DDOT":"0.0000000000000","MEAN_ANOMALY":"20.5789","EPOCH":"2022-08-04T22:00:00.999936","TIME_SYSTEM":"UTC","SEMIMAJOR_AXIS":"6728.132","MEAN_MOTION":"15.73116847","ARG_OF_PERICENTER":"22.8359","OBJECT_ID":"2022-076AN","REF_FRAME":"TEME","CLASSIFICATION_TYPE":"U","INCLINATION":"53.2182","OBJECT_TYPE":"PAYLOAD","BSTAR":"0.00025970000000","RCS_SIZE":"LARGE","GP_ID":"209593013"},{"MEAN_ANOMALY":"25.4026","EPOCH":"2022-08-04T22:00:00.999936","TIME_SYSTEM":"UTC","SEMIMAJOR_AXIS":"6727.830","MEAN_MOTION":"15.73222938","ARG_OF_PERICENTER":"20.7486","REF_FRAME":"TEME","OBJECT_ID":"2022-076AP","INCLINATION":"53.2183","CLASSIFICATION_TYPE":"U","OBJECT_TYPE":"PAYLOAD","BSTAR":"-0.00017888000000","RCS_SIZE":"LARGE","GP_ID":"209592882","RA_OF_ASC_NODE":"239.1621","OBJECT_NAME":"STARLINK-4284","PERIAPSIS":"348.205","REV_AT_EPOCH":"130","COUNTRY_CODE":"US","FILE":"3529274","TLE_LINE1":"1 53023U 22076AP  22216.91667824 -.00025677  00000-0 -17888-3 0  9990","PERIOD":"91.532","ELEMENT_SET_NO":"999","CENTER_NAME":"EARTH","EPHEMERIS_TYPE":"0","APOAPSIS":"351.185","DECAY_DATE":null,"MEAN_MOTION_DOT":"-0.00025677","NORAD_CAT_ID":"53023","LAUNCH_DATE":"2022-07-07","ECCENTRICITY":"0.00022150","SITE":"AFETR","MEAN_ELEMENT_THEORY":"SGP4","TLE_LINE2":"2 53023  53.2183 239.1621 0002215  20.7486  25.4026 15.73222938  1303","MEAN_MOTION_DDOT":"0.0000000000000"},{"ECCENTRICITY":"0.00018970","LAUNCH_DATE":"2022-07-07","SITE":"AFETR","MEAN_ELEMENT_THEORY":"SGP4","TLE_LINE2":"2 53024  53.2181 239.1621 0001897  18.4954  27.0702 15.73135555  1308","MEAN_MOTION_DDOT":"0.0000000000000","CENTER_NAME":"EARTH","EPHEMERIS_TYPE":"0","APOAPSIS":"351.220","DECAY_DATE":null,"MEAN_MOTION_DOT":"0.00071073","NORAD_CAT_ID":"53024","FILE":"3529274","TLE_LINE1":"1 53024U 22076AQ  22216.91667824  .00071073  00000-0  50792-3 0  9991","PERIOD":"91.537","ELEMENT_SET_NO":"999","RA_OF_ASC_NODE":"239.1621","OBJECT_NAME":"STARLINK-4289","PERIAPSIS":"348.668","COUNTRY_CODE":"US","REV_AT_EPOCH":"130","RCS_SIZE":"LARGE","GP_ID":"209592229","OBJECT_ID":"2022-076AQ","REF_FRAME":"TEME","INCLINATION":"53.2181","CLASSIFICATION_TYPE":"U","OBJECT_TYPE":"PAYLOAD","BSTAR":"0.00050792000000","MEAN_MOTION":"15.73135555","ARG_OF_PERICENTER":"18.4954","MEAN_ANOMALY":"27.0702","EPOCH":"2022-08-04T22:00:00.999936","SEMIMAJOR_AXIS":"6728.079","TIME_SYSTEM":"UTC"},{"MEAN_MOTION_DDOT":"0.0000000000000","TLE_LINE2":"2 53025  53.2179 239.1576 0002346  21.6267  25.9503 15.73101887  1305","MEAN_ELEMENT_THEORY":"SGP4","SITE":"AFETR","LAUNCH_DATE":"2022-07-07","ECCENTRICITY":"0.00023460","NORAD_CAT_ID":"53025","MEAN_MOTION_DOT":"0.00070929","DECAY_DATE":null,"APOAPSIS":"351.618","EPHEMERIS_TYPE":"0","CENTER_NAME":"EARTH","ELEMENT_SET_NO":"999","PERIOD":"91.539","TLE_LINE1":"1 53025U 22076AR  22216.91667824  .00070929  00000-0  50762-3 0  9998","FILE":"3529274","COUNTRY_CODE":"US","REV_AT_EPOCH":"130","PERIAPSIS":"348.461","OBJECT_NAME":"STARLINK-4218","RA_OF_ASC_NODE":"239.1576","GP_ID":"209592360","RCS_SIZE":"LARGE","BSTAR":"0.00050762000000","OBJECT_TYPE":"PAYLOAD","CLASSIFICATION_TYPE":"U","INCLINATION":"53.2179","OBJECT_ID":"2022-076AR","REF_FRAME":"TEME","ARG_OF_PERICENTER":"21.6267","MEAN_MOTION":"15.73101887","TIME_SYSTEM":"UTC","SEMIMAJOR_AXIS":"6728.175","EPOCH":"2022-08-04T22:00:00.999936","MEAN_ANOMALY":"25.9503"},{"MEAN_MOTION_DDOT":"0.0000000000000","SITE":"AFETR","ECCENTRICITY":"0.00024360","LAUNCH_DATE":"2022-07-07","TLE_LINE2":"2 53026  53.2180 239.1637 0002436  27.7907  16.5824 15.73197909  4961","MEAN_ELEMENT_THEORY":"SGP4","NORAD_CAT_ID":"53026","EPHEMERIS_TYPE":"0","CENTER_NAME":"EARTH","MEAN_MOTION_DOT":"0.00033518","APOAPSIS":"351.405","DECAY_DATE":null,"ELEMENT_SET_NO":"999","TLE_LINE1":"1 53026U 22076AS  22216.91667824  .00033518  00000-0  24229-3 0  9991","FILE":"3529244","PERIOD":"91.533","OBJECT_NAME":"STARLINK-4119","COUNTRY_CODE":"US","REV_AT_EPOCH":"496","PERIAPSIS":"348.127","RA_OF_ASC_NODE":"239.1637","GP_ID":"209567600","RCS_SIZE":"LARGE","CLASSIFICATION_TYPE":"U","INCLINATION":"53.2180","BSTAR":"0.00024229000000","OBJECT_TYPE":"PAYLOAD","OBJECT_ID":"2022-076AS","REF_FRAME":"TEME","MEAN_MOTION":"15.73197909","ARG_OF_PERICENTER":"27.7907","MEAN_ANOMALY":"16.5824","EPOCH":"2022-08-04T22:00:00.999936","TIME_SYSTEM":"UTC","SEMIMAJOR_AXIS":"6727.901"},{"EPHEMERIS_TYPE":"0","CENTER_NAME":"EARTH","MEAN_MOTION_DOT":"-0.00019741","APOAPSIS":"351.021","DECAY_DATE":null,"NORAD_CAT_ID":"53027","SITE":"AFETR","LAUNCH_DATE":"2022-07-07","ECCENTRICITY":"0.00019800","TLE_LINE2":"2 53027  53.2181 239.1560 0001980  34.9950  14.1562 15.73225049  4969","MEAN_ELEMENT_THEORY":"SGP4","MEAN_MOTION_DDOT":"0.0000000000000","RA_OF_ASC_NODE":"239.1560","OBJECT_NAME":"STARLINK-4158","COUNTRY_CODE":"US","REV_AT_EPOCH":"496","PERIAPSIS":"348.357","TLE_LINE1":"1 53027U 22076AT  22216.91667824 -.00019741  00000-0 -13640-3 0  9991","FILE":"3529244","PERIOD":"91.532","ELEMENT_SET_NO":"999","REF_FRAME":"TEME","OBJECT_ID":"2022-076AT","CLASSIFICATION_TYPE":"U","INCLINATION":"53.2181","BSTAR":"-0.00013640000000","OBJECT_TYPE":"PAYLOAD","GP_ID":"209567102","RCS_SIZE":"LARGE","MEAN_ANOMALY":"14.1562","EPOCH":"2022-08-04T22:00:00.999936","TIME_SYSTEM":"UTC","SEMIMAJOR_AXIS":"6727.824","MEAN_MOTION":"15.73225049","ARG_OF_PERICENTER":"34.9950"}];
